id,districtCode,rdf_type,district,neighborhoodCode,neighborhood,address,site,additionalInfo,equipmentNumber,features,operator,openingHours,management,utmX,utmY
ba583698a4e5ba87f925d84d741b4826,2,ChargingPoint,Arganzuela,1,Imperial,Calle Chulapos s/n,Vía pública,-,1,50 kW 2 conectores CC (CCS/Chademo) y 1 conector AC modo 2 Mennekes,REPSOL,24,Convenio vía pública,438893.73,4473226.26
efbf12793ab5cc8c058b30317cf34969,2,ChargingPoint,Arganzuela,6,Palos de Moguer,Ronda de Valencia 1,Vía pública,-,1,50 kW 2 conectores CC (CCS/Chademo) y 1 conector AC modo 2 Mennekes,GIC,24,Convenio vía pública,440624.23,4473016.22
69bd1b5fe6fad258cbe1a3e75675e509,3,ChargingPoint,Retiro,2,Adelfas,Calle Cerro de la Plata 4,Vía pública,-,1,50 kW 2 conectores CC (CCS/Chademo) y 1 conector AC modo 2 Mennekes,GIC,24,Convenio vía pública,442701.58,4472363.01
3f2d96d348e4086e5eea097d43292e81,3,ChargingPoint,Retiro,5,Jerónimos,"Calle Alfonso XII, 2",Vía pública,-,1,50 kW 2 conectores CC (CCS/Chademo) y 1 conector AC modo 2 Mennekes,REPSOL,24,Convenio vía pública,441553.76,4474522.81
2d13bcb6eaa211753612e8d75ea14d12,4,ChargingPoint,Salamanca,1,Recoletos,Calle Goya 36,Vía pública,-,1,50 kW 2 conectores CC (CCS/Chademo) y 1 conector AC modo 2 Mennekes,GIC,24,Convenio vía pública,442227.27,4475141.53
4e5bf8861fd0590942af54613d4f49a1,4,ChargingPoint,Salamanca,2,Goya,Calle Goya 123,Vía pública,-,1,50 kW 2 conectores CC (CCS/Chademo) y 1 conector AC modo 2 Mennekes,REPSOL,24,Convenio vía pública,443066.59,4475108.89
99d94d337c72d1d134bcfc68f3b8237a,4,ChargingPoint,Salamanca,6,Castellana,Calle Castelló 105,Vía pública,-,1,50 kW 2 conectores CC (CCS/Chademo) y 1 conector AC modo 2 Mennekes,GIC,24,Convenio vía pública,442261.15,4476262.44
8408db3fe0fcbc170c7da7e790cd13bd,4,ChargingPoint,Salamanca,4,Guindalera,"Mercado de Guindalera. Plaza de San Cayetano, s/n",Mercado municipal,Mercado Municipal,1,50 kW 2 conectores CC (CCS/Chademo) y 1 conector AC modo 2 Mennekes,ENDESA,24,Convenio cesión,443112.6499,4476133.98
a259115e4c084feabcfcd091f34aeaac,10,ChargingPoint,Latina,6,Cuatro Vientos,"Calle Sinfonia, 9 (ES Ballenoil Aviación)",Estación de servicio,-,1,50 kW 2 conectores CC (CCS/Chademo) y 1 conector AC modo 2 Mennekes,IBERDROLA,24,Convenio cesión,434058.4892,4469583.3902
6c6f26b1e8d069514add56c18ea67dc9,19,ChargingPoint,Vicálvaro,2,Valdebernardo,"Bulevar José Prat, 27A",Vía pública,,3,"2 equipos 100 kW CCS Combo, y 1 equipo 50 kW CCS/Chademo + 1 conector 22kW AC modo 2.",IBERDROLA,24,Concesión demanial,447320.4342,4472066.8777
cbe6011e26396a4e6ad4f85a434f9f3a,5,ChargingPoint,Chamartín,4,Hispanoamérica,"Avenida Alfonso XIII, esquina, Costa Rica",Estación de servicio,,1,50 kW 2 conectores CC (CCS/Chademo) y 1 conector AC modo 2 Mennekes,REPSOL,24,Convenio cesión,443390.46,4478901.39
b77682ab54d90dad5afc8bce2a49bc19,4,ChargingPoint,Salamanca,6,Castellana,Calle Velázquez 74,Vía pública,-,1,50 kW 2 conectores CC (CCS/Chademo) y 1 conector AC modo 2 Mennekes,REPSOL,24,Convenio vía pública,442015.28,4475633.05
19475ace547ec72bf2cdfc0ec3a72c7e,4,ChargingPoint,Salamanca,6,Castellana,Paseo Castellana 52,Vía pública,-,1,50 kW 2 conectores CC (CCS/Chademo) y 1 conector AC modo 2 Mennekes,REPSOL,24,Convenio vía pública,441650.0,4476325.0
dec22ddf0cd21d4a2beffafcf5c9e634,5,ChargingPoint,Chamartín,1,El Viso,Paseo Castellana 106,Vía pública,-,1,50 kW 2 conectores CC (CCS/Chademo) y 1 conector AC modo 2 Mennekes,REPSOL,24,Convenio vía pública,441420.49,4477426.85
8c85065989ae74bb6fe1376f572e399d,5,ChargingPoint,Chamartín,4,Hispanoamérica,Paseo Castellana 160,Vía pública,-,2,50 kW 2 conectores CC (CCS/Chademo) y 1 conector AC modo 2 Mennekes. Equipo 150 kW: DC-CCS Combo 2 (≥ 250 A) y CHAdeMO (≥ 100 A),REPSOL,24,Convenio vía pública,441528.45,4478870.2
d29c9e55277e6a37a79c6f9adb0d5e48,5,ChargingPoint,Chamartín,6,Castilla,Calle Cardenal Marcelo Spínola 6,Vía pública,-,1,50 kW 2 conectores CC (CCS/Chademo) y 1 conector AC modo 2 Mennekes,GIC,24,Convenio vía pública,443204.66,4479841.35
bec8348689c2dd2086ed924107eb2ea9,7,ChargingPoint,Chamberí,2,Arapiles,Calle Fernández de los Ríos 42,Vía pública,-,1,50 kW 2 conectores CC (CCS/Chademo) y 1 conector AC modo 2 Mennekes,REPSOL,24,Convenio vía pública,439847.45,4476302.27
372547ac60d2a6616c14bc228bfc2f4d,7,ChargingPoint,Chamberí,2,Arapiles,Plaza del Conde de Valle de Suchil,Vía pública,-,1,50 kW 2 conectores CC (CCS/Chademo) y 1 conector AC modo 2 Mennekes,REPSOL,24,Convenio vía pública,440038.83,4475778.21
538a4003bf67737c535c1ea10fcadffb,7,ChargingPoint,Chamberí,3,Trafalgar,Calle Fuencarral 114,Vía pública,,1,50 kW 2 conectores CC (CCS/Chademo) y 1 conector AC modo 2 Mennekes,REPSOL,24,Convenio vía pública,440414.18,4475676.4
866d18857f099edd8d9f9f27e291d2de,7,ChargingPoint,Chamberí,3,Trafalgar,Calle Manuel Silvela 16,Vía pública,-,1,50 kW 2 conectores CC (CCS/Chademo) y 1 conector AC modo 2 Mennekes,GIC,24,Convenio vía pública,440694.0,4475775.0
2d06aa2814b1321dea2393c9753ceb57,5,ChargingPoint,Chamartín,5,Nueva España,"Avenida Alberto Alcocer, 11",Aparcamiento,Aparcamiento privado rotación,1,50 kW 2 conectores CC (CCS/Chademo) y 1 conector AC modo 2 Mennekes,ENDESA,24,Convenio cesión,441794.8299,4478935.7502
d0200e4ced18f008683432670ea2e425,7,ChargingPoint,Chamberí,3,Trafalgar,Calle Santa Engracia 115,Vía pública,-,1,50 kW 2 conectores CC (CCS/Chademo) y 1 conector AC modo 2 Mennekes,GIC,24,Convenio vía pública,440607.26,4476613.59
e6c17fcc3e2243bd228086088c5f7ec2,7,ChargingPoint,Chamberí,4,Almagro,Paseo Castellana 33,Vía pública,-,1,50 kW 2 conectores CC (CCS/Chademo) y 1 conector AC modo 2 Mennekes,GIC,24,Convenio vía pública,441547.43,4475930.09
296218432be94bba34575d1a657d83fa,8,ChargingPoint,Fuencarral - El Pardo,5,La Paz,Calle de Sinesio Delgado 2,Vía pública,-,1,50 kW 2 conectores CC (CCS/Chademo) y 1 conector AC modo 2 Mennekes,GIC,24,Convenio vía pública,441683.6,4480640.99
158095f38aa44cb53211ef56cfc733e9,15,ChargingPoint,Ciudad Lineal,6,San Juan Bautista,Calle Bueso Pineda 29,Vía pública,-,1,50 kW 2 conectores CC (CCS/Chademo) y 1 conector AC modo 2 Mennekes,GIC,24,Convenio vía pública,444431.81,4478363.82
d565db188119685e89a22e0fa9c98f20,1,ChargingPoint,Centro,1,Palacio,Mercado de la Cebada. Plaza de la Cebada,Mercado municipal,Mercado municipal,1,50 kW 2 conectores CC (CCS/Chademo),DRIVE THE CITY,24,Convenio cesión,439749.07,4473590.81
ebc3e54f9536f4cb77f98bed9ecd1abd,5,ChargingPoint,Chamartín,5,Nueva España,"Calle Mateo Inurria, 4",Estación de servicio,-,1,50 kW 2 conectores CC (CCS/Chademo) y 1 conector AC modo 2 Mennekes,REPSOL,24,Convenio cesión,441796.67,4479756.43
3ca5d79341246777b23ff60d47fdb17b,6,ChargingPoint,Tetuán,6,Berruguete,"Calle Ofelia Nieto, 64",Estación de servicio,-,1,50 kW 2 conectores CC (CCS/Chademo) y 1 conector AC modo 2 Mennekes,REPSOL,24,Convenio cesión,439921.87,4479217.94
39fea441a65d2de6732a615d05323bb7,8,ChargingPoint,Fuencarral - El Pardo,6,Valverde,ES Repsol 96849 - Calle Abetal 8 - Las Tablas,Estación de servicio,-,2,50 kW 2 conectores CC (CCS/Chademo) y 1 conector AC modo 2 Mennekes,REPSOL,24,Convenio cesión,443805.23,4483684.43
1de177b9c28b4774636976c6013dab3c,9,ChargingPoint,Moncloa - Aravaca,3,Ciudad Universitaria,"ES Hipódromo(CR A-6, 8)",Estación de servicio,-,1,50 kW 2 conectores CC (CCS/Chademo) y 1 conector AC modo 2 Mennekes,REPSOL,24,Convenio cesión,435728.68,4479193.77
dba6c74cba092c16e63d38876fb1d627,9,ChargingPoint,Moncloa - Aravaca,6,El Plantío,ES Aravaca - El Plantío (Avenida Victoria 34),Estación de servicio,-,1,50 kW 2 conectores CC (CCS/Chademo) y 1 conector AC modo 2 Mennekes,REPSOL,24,Convenio cesión,430479.36,4480122.57
c178f43bf6e04900ad05405f249cb245,10,ChargingPoint,Latina,6,Cuatro Vientos,ES Repsol 33826 - Pº Extremadura 543 (A5 PK9),Estación de servicio,-,1,50 kW 2 conectores CC (CCS/Chademo) y 1 conector AC modo 2 Mennekes,REPSOL,24,Convenio cesión,432896.01,4470164.94
20636e3cc63962b2579bcdfbafcc1ed6,10,ChargingPoint,Latina,6,Cuatro Vientos,"CRED PAU CARABANCHEL, Av. de la Peseta",Estación de servicio,-,1,50 kW 2 conectores CC (CCS/Chademo) y 1 conector AC modo 2 Mennekes,REPSOL,24,Convenio cesión,434997.82,4468934.81
0b9a5bcd4f4fdc97f8a0b6cb93b813d5,10,ChargingPoint,Latina,7,Águilas,Mercado de las Águilas - Calle de José Cadalso,Mercado municipal,Mercado Municipal,1,50 kW 2 conectores CC (CCS/Chademo) y 1 conector AC modo 2 Mennekes,DRIVE THE CITY,24,Convenio cesión,434762.24,4469976.18
8ab6042ddd9b691f79ff52e5690f6166,13,ChargingPoint,Puente de Vallecas,4,Palomeras Sureste,Avenida de la Albufera 319,Aparcamiento,Aparcamiento privado rotación,2,50 kW 2 conectores CC (CCS/Chademo) y 1 conector AC modo 2 Mennekes,ECOLINERAS,24,Convenio cesión,446350.62,4470558.49
8b25f3c13b57684b9468bbfe7df3e316,16,ChargingPoint,Hortaleza,6,Valdefuentes,Avenida María de Portugal 15,Estación de servicio,-,1,50 kW 2 conectores CC (CCS/Chademo) y 1 conector AC modo 2 Mennekes,IBERDROLA,24,Convenio cesión,443849.63,4483208.55
066e792933f04894c48e8956bd099e33,17,ChargingPoint,Villaverde,3,Butarque,"Avda. de los Rosales 147 M-301 km 4,1",Estación de servicio,-,1,50 kW 2 conectores CC (CCS/Chademo) y 1 conector AC modo 2 Mennekes,REPSOL,24,Convenio cesión,443195.3,4465688.69
be366576db50c29184da68cfad717311,20,ChargingPoint,San Blas - Canillejas,6,Rejas,"ES Repsol Barajas II (CR N-2 P.K. 12,60 D)",Estación de servicio,-,1,50 kW 2 conectores CC (CCS/Chademo) y 1 conector AC modo 2 Mennekes,REPSOL,24,Convenio cesión,451967.11,4477750.54
54b87ce7f4d73850fe52ae1bc4cab348,1,ChargingPoint,Centro,6,Sol,Plaza de Jacinto Benavente 6,Aparcamiento,Aparcamiento público rotación. EMT,1,50 kW 2 conectores CC (CCS/Chademo) y 1 conector AC modo 2 Mennekes,EMT,24,EMT,440341.55,4474015.14
77260d4cf7d8dc78024c8ede7a140c52,4,ChargingPoint,Salamanca,1,Recoletos,Jardines del Descubrimiento - Acceso a Complejo de Aparcamientos subterráneos por Calle de la Armada Española,Aparcamiento,Aparcamiento público rotación. EMT,4,50 kW 2 conectores CC (CCS/Chademo) y 1 conector AC modo 2 Mennekes,EMT,24,EMT,441474.08,4475110.19
e73bfda4b90ef6b0efd9b2e086164cb4,4,ChargingPoint,Salamanca,5,Lista,Plaza de Marqués de Salamanca,Aparcamiento,Aparcamiento público rotación. EMT,1,50 kW 2 conectores CC (CCS/Chademo) y 1 conector AC modo 2 Mennekes,EMT,24,EMT,442391.2,4475742.85
80b59bd0547aa0cf343828896d3fe1fb,5,ChargingPoint,Chamartín,6,Castilla,Calle Hiedra 36,Aparcamiento,Aparcamiento público rotación. EMT,2,50 kW 2 conectores CC (CCS/Chademo) y 1 conector AC modo 2 Mennekes,EMT,24,EMT,442442.16,4480402.5
4d28172f6430517c31fd6bc93ed3f36b,1,ChargingPoint,Centro,1,Palacio,Plaza de la Cebada,Aparcamiento,Iniciativa privada,1,50 kW 2 conectores CC (CCS/Chademo),DRIVE THE CITY,,Iniciativa privada,439744.7485,4473589.8399
6135095289138bee6b7c894bc6332b2d,1,ChargingPoint,Centro,5,Universidad,Calle Alberto Aguilera 9,Estación de servicio,-,1,50 kW 2 conectores CC (CCS/Chademo),REPSOL,,Iniciativa privada,439914.74,4475692.23
431db55b2e019eb81e1740ce7d9720df,3,ChargingPoint,Retiro,2,Adelfas,Plaza del Conde de Casal 6,Aparcamiento,Aparcamiento privado rotación. Iniciativa privada,2,50 kW 2 conectores CC (CCS/Chademo),DRIVE THE CITY,,Iniciativa privada,443198.96,4473071.62
ff8c69fa2ebead64dcdbacd080b2067b,8,ChargingPoint,Fuencarral - El Pardo,8,El Goloso,"Calle del Monasterio de Arlanza, 20 (Centro Comercial Montecarmelo)",Aparcamiento,Aparcamiento privado rotación. Iniciativa privada,2,50 kW 2 conectores CC (CCS/Chademo),IBERDROLA,,Iniciativa privada,441485.27,4484580.97
fbd567a5b0e4120def9c15bd04bc21ca,16,ChargingPoint,Hortaleza,3,Canillas,Avenida de Machupichu 105,Estación de servicio,Iniciativa privada,1,50 kW 2 conectores CC (CCS/Chademo),GIC,,Iniciativa privada,446082.58,4479561.39
e71e62902e4e2a8554e66c089fb78621,16,ChargingPoint,Hortaleza,6,Valdefuentes,Avenida de Niceto Alcala Zamora 20,Estación de servicio,Iniciativa privada,1,50 kW 2 conectores CC (CCS/Chademo),GIC/ GALP,,Iniciativa privada,445077.48,4482762.25
3995023c5508597e5a27afafc50e5dae,18,ChargingPoint,Villa de Vallecas,1,Casco Histórico de Vallecas,"Avenida Eje Central, 7",Estación de servicio,Iniciativa privada,1,50 kW 2 conectores CC (CCS/Chademo) y 1 conector AC modo 2 Mennekes,NATURGY,,Iniciativa privada,444372.2,4468659.86
e7fb91fd736456a5edc11d85e11619c7,18,ChargingPoint,Villa de Vallecas,1,Casco Histórico de Vallecas,Carretera de Villaverde a Vallecas 278,Estación de servicio,-,1,50 kW 2 conectores CC (CCS/Chademo),REPSOL,,Iniciativa privada,445890.74,4469312.6
ed4f94850d51efa2dbfc816acc0b7cb5,21,ChargingPoint,Barajas,5,Corralejos,Avenida del Consejo de Europa 2,Estación de servicio,Iniciativa privada,4,350 kW conector CC (CCS),GIC / CEPSA,,Iniciativa privada,447722.67,4478857.49
d092604db648e8d8dbf5dff23713fdde,21,ChargingPoint,Barajas,5,Corralejos,Avenida del Partenón 5 (Recinto IFEMA),Aparcamiento,Aparcamiento privado rotación. Iniciativa privada,2,50 kW 2 conectores CC (CCS/Chademo),IBERDROLA,,Iniciativa privada,447742.82,4479473.56
6abf21da4a729feb732728d80e2365d9,2,ChargingPoint,Arganzuela,6,Palos de Moguer,"Calle del General Lacy, 21",Vía pública,,3,"2 equipos 100 kW CCS/Chademo, y 1 equipo 50 kW CCS/Chademo + 1 conector 22kW AC modo 2.",TOTALENERGIES,24,Concesión demanial,441386.7515,4472591.668
2c559421d45ceddeede365ed25044c75,3,ChargingPoint,Retiro,2,Adelfas,"Calle de Luis Peidró, 11",Vía pública,,3,"2 equipos 100 kW CCS Combo, y 1 equipo 50 kW CCS/Chademo + 1 conector 22kW AC modo 2.",IBERDROLA,24,Concesión demanial,442874.0634,4472020.7909
2b51d211ef17db433a7cbc25a21b18ad,14,ChargingPoint,Moratalaz,1,Pavones,Calle Hacienda de Pavones 231 (enfrente del LIDL),Vía pública,,3,"2 equipos 100 kW CCS Combo, y 1 equipo 50 kW CCS/Chademo + 1 conector 22kW AC modo 2.",IBERDROLA,24,Concesión demanial,446142.3212,4472412.6041
ee9ed14fe95c4cea8db5ea157dd51fbe,15,ChargingPoint,Ciudad Lineal,5,San Pascual,"Calle Esteban Mora, 43",Vía pública,,3,"2 equipos 100 kW CCS Combo, y 1 equipo 50 kW CCS/Chademo + 1 conector 22kW AC modo 2.",IBERDROLA,24,Concesión demanial,444526.4106,4476666.0154
f8833b217bc02d57f05f682341a9081d,16,ChargingPoint,Hortaleza,4,Pinar del Rey,"Glorieta De Sandro Pertini (frente a edificio c/ Arequipa, 1)",Vía pública,,3,"2 equipos 100 kW CCS Combo, y 1 equipo 50 kW CCS/Chademo + 1 conector 22kW AC modo 2.",IBERDROLA,24,Concesión demanial,445579.8599,4480025.5274
3decf74f5c2dca068b212f6b06284bcb,17,ChargingPoint,Villaverde,4,Los Rosales,Calle de Santa Florencia (enfrente del 1),Vía pública,,3,"2 equipos 100 kW CCS Combo, y 1 equipo 50 kW CCS/Chademo + 1 conector 22kW AC modo 2.",IBERDROLA,24,Concesión demanial,441314.0361,4466782.201
a4d847ffb29691fdbbf030c133414e56,19,ChargingPoint,Vicálvaro,1,Casco histórico de Vicálvaro,"Calle Villardondiego, 34",Vía pública,,3,"Lote 2. 2 equipos 100 kW CCS/Chademo, y 1 equipo 50 kW CCS/Chademo + 1 conector 22kW AC modo 2",TOTALENERGIES,24,Concesión demanial,448353.1795,4472998.542
9b91f4720a5385ee4b39c05b04455ad5,19,ChargingPoint,Vicálvaro,3,Valderrivas,"Calle de Minerva, 17",Vía pública,,3,"2 equipos 100 kW CCS/Chademo, y 1 equipo 50 kW CCS/Chademo + 1 conector 22kW AC modo 2.",TOTALENERGIES,24,Concesión demanial,449179.8255,4472656.5806
c806ffe1c01a27ddaec031addcbd5325,18,ChargingPoint,Villa de Vallecas,1,Casco Histórico de Vallecas,Parcela D.2.1 Anexo avenida de legazpi,Mercamadrid,-,2,50 kW 2 conectores CC (CCS/Chademo) y 1 conector AC modo 2 Mennekes,DRIVE THE CITY,24,Acuerdo bilateral,443790.1721,4467889.6544
a7b345adc38f4956402d7156a598c50c,18,ChargingPoint,Villa de Vallecas,1,Casco Histórico de Vallecas,Parcela E4 Anexo Avda Legazpi,Mercamadrid,-,1,50 kW 2 conectores CC (CCS/Chademo) y 1 conector AC modo 2 Mennekes,DRIVE THE CITY,24,Acuerdo bilateral,443986.2817,4468371.2941
cee1020fa6d2b0f621ed9ea23bd92b0e,18,ChargingPoint,Villa de Vallecas,1,Casco Histórico de Vallecas,Parcela B14 Anexo Calle 3,Mercamadrid,-,1,50 kW 2 conectores CC (CCS/Chademo) y 1 conector AC modo 2 Mennekes,GIC (CIRCUTOR),24,Acuerdo bilateral,443061.5214,4467834.8688
936bf4f98f67f3346ca5fcae989ba5ee,3,ChargingPoint,Retiro,4,Ibiza,Calle Ibiza 1,Vía pública,-,1,50 kW 2 conectores CC (CCS/Chademo) y 1 conector AC modo 2 Mennekes,REPSOL,24,Convenio vía pública,442444.5301,4474433.54
a9dfcd7cdfdd2bddc78a6d07fa248d80,3,ChargingPoint,Retiro,5,Jerónimos,"Plaza de la Lealtad, s/n",Vía pública,-,2,50 kW 2 conectores CC (CCS/Chademo) y 1 conector AC modo 2 Mennekes,GIC,24,Convenio vía pública,441289.71,4474176.6598
208e47198de258109c8d07077c941ec6,11,ChargingPoint,Carabanchel,6,Buenavista,"Calle Hilario Herranz Establos, 20",Estación de servicio,-,1,50 kW 2 conectores CC (CCS/Chademo) y 1 conector AC modo 2 Mennekes,ENDESA,24,Convenio cesión,438101.26,4469380.78
77c1df245c88a1c47bee772b4b5f2ebc,9,ChargingPoint,Moncloa - Aravaca,2,Argüelles,"Calle Marqués de Urquijo, 27",Aparcamiento,Aparcamiento privado rotación,1,50 kW 2 conectores CC (CCS/Chademo) y 1 conector AC modo 2 Mennekes,ENDESA,24,Convenio cesión,439003.67,4475684.86
52264bf41477839c2c7a66d175adfaaf,17,ChargingPoint,Villaverde,1,"Villaverde Alto, Casco Histórico de Villaverde","Calle Valle de Tobalina, 24 (ES Ballenoil)",Estación de servicio,-,1,50 kW 2 conectores CC (CCS/Chademo) y 1 conector AC modo 2 Mennekes,IBERDROLA,24,Convenio cesión,439248.7,4465309.95
305c703506dffcf5012b4f31e3f047cb,6,ChargingPoint,Tetuán,2,Cuatro Caminos,"Mercado Municipal de Maravillas, Calle Bravo Murillo 122",Mercado municipal,Mercado Municipal,2,50 kW 2 conectores CC (CCS/Chademo) y 1 conector AC modo 2 Mennekes,DRIVE THE CITY,24,Convenio cesión,440347.65,4477839.43
906d450bd8a8e0db0b68d67822a7b12f,12,ChargingPoint,Usera,2,Orcasur,"Calle de Eduardo Barreiros, 2 (On rent)",Aparcamiento,Aparcamiento privado rotación,1,50 kW 2 conectores CC (CCS/Chademo) y 1 conector AC modo 2 Mennekes,ENDESA,24,Convenio cesión,440927.55,4469462.7
bab3bc7647c4270edfee8b00bb3e9693,6,ChargingPoint,Tetuán,2,Cuatro Caminos,"Avenida del General Perón, 21",Aparcamiento,Aparcamiento privado rotación,1,50 kW 2 conectores CC (CCS/Chademo) y 1 conector AC modo 2 Mennekes,ENDESA,24,Convenio cesión,440993.37,4478218.78
9c14b44936c3c51f75f26e1a7770ea81,12,ChargingPoint,Usera,2,Orcasur,ES Avenida de Andalucía 38 - Carretera A-4 PK6.70 D,Estación de servicio,-,1,50 KW 2 conectores CC (CCS/Chademo) y 1 conector AC modo 2 Mennekes,REPSOL,24,Convenio cesión,441045.96,4468677.05
a0052aa08522dda7fbcb25fb828e69cd,16,ChargingPoint,Hortaleza,5,Apostol Santiago,"SEDE NATURGY, Av San Luis, 77",Aparcamiento,-,1,50 kW 2 conectores CC (CCS/Chademo) y 1 conector AC modo 2 Mennekes,NATURGY,de 6 a 24 h,Convenio cesión,443786.93,4480466.05
6c112cc8acde49ce39f5f00018014b5f,18,ChargingPoint,Villa de Vallecas,1,Casco Histórico de Vallecas,"Atolón 98 (Mercamadrid), Calle 29.",Mercamadrid,-,3,50 kW 2 conectores CC (CCS/Chademo) y 1 conector AC modo 2 Mennekes,DRIVE THE CITY,24,Convenio cesión,443843.34,4467592.54
f39becbbfee66823f68602188ca0fdb8,15,ChargingPoint,Ciudad Lineal,1,Ventas,"Estación de Servicio SUDEL, Calle Ricardo Ortiz, 44",Estación de servicio,-,1,50 kW 2 conectores CC (CCS/Chademo) y 1 conector AC modo 2 Mennekes,Sudel,24,Convenio cesión,444134.97,4475248.08
5e3aac1981c0d836f3db94ff82b81f61,15,ChargingPoint,Ciudad Lineal,7,Colina,"ES Calle Arturo Soria, 175",Estación de servicio,-,1,50 kW 2 conectores CC (CCS/Chademo) y 1 conector AC modo 2 Mennekes,REPSOL,24,Convenio cesión,444202.22,4478730.31
b8d2c2cc94d63cac57337ded2bcbdf77,15,ChargingPoint,Ciudad Lineal,5,San Pascual,Calle Verdaguer y García 5 (Ipark-Verdaguer ampliación),Aparcamiento,,1,50 kW 2 conectores CC (CCS/Chademo) y 1 conector AC modo 2 Mennekes,ENDESA,24,Convenio cesión,444355.29,4476807.18
a12a6a67fc567d5d896e47fef297f78b,14,ChargingPoint,Moratalaz,3,Marroquina,CRE Moratalaz Glorieta del Corregidor Sancho de Córdoba,Estación de servicio,-,1,50 kW 2 conectores CC (CCS/Chademo) y 1 conector AC modo 2 Mennekes,REPSOL,24,Convenio cesión,444688.0,4473174.18
0ab9dd4757d16894eef649eb692b167d,18,ChargingPoint,Villa de Vallecas,1,Casco Histórico de Vallecas,"Avenida Mayorazgo, 20",Estación de servicio,-,1,50 kW 2 conectores CC (CCS/Chademo) y 1 conector AC modo 2 Mennekes,GALP,24,Convenio cesión,446388.42,4468958.45
0e4265dd86a7cb8f0e4a251229370ca6,20,ChargingPoint,San Blas - Canillejas,1,Simancas,"Avenida Arcentales, 7",Estación de servicio,-,1,50 kW 2 conectores CC (CCS/Chademo) y 1 conector AC modo 2 Mennekes,GALP,24,Convenio cesión,446901.44,4475280.8
82223ee0df18cb22fa2acab40bcf7e1e,20,ChargingPoint,San Blas - Canillejas,1,Simancas,Calle Alcalá 510 (CRED San Blas),Estación de servicio,-,1,50 kW 2 conectores CC (CCS/Chademo) y 1 conector AC modo 2 Mennekes,REPSOL,24,Convenio cesión,446962.63,4476913.48
8cb8a4614c1bf8c8813e2ca9acaf41a7,20,ChargingPoint,San Blas - Canillejas,4,Arcos,"Avenida Canillejas a Vicálvaro, 80",Estación de servicio,-,1,50 kW 2 conectores CC (CCS/Chademo) y 1 conector AC modo 2 Mennekes,GALP,24,Convenio cesión,448119.4,4475248.08
f4e93410efea1d67bcf00186703890e9,20,ChargingPoint,San Blas - Canillejas,5,Rosas,"Avenida Canillejas a Vicálvaro, 147",Estación de servicio,-,1,50 kW 2 conectores CC (CCS/Chademo) y 1 conector AC modo 2 Mennekes,Cerdeira,24,Convenio cesión,448149.86,4475064.07
4e447bc5c3825831ae3f41b5ddc293ea,18,ChargingPoint,Villa de Vallecas,3,Ensanche de Vallecas,"Calle Alto del Retiro, s/n",Estación de servicio,-,1,50 KW 2 conectores CC (CCS/Chademo) y 1 conector AC modo 2 Mennekes,ENDESA,24,Convenio cesión,450102.96,4468607.43
763b10dadfcbde1bba6fd4f1f630f4db,20,ChargingPoint,San Blas - Canillejas,6,Rejas,"CENTRO DE OPERACIONES NATURGY, Calle Deyanira, 10",Aparcamiento,-,1,50 KW 2 conectores CC (CCS/Chademo) y 1 conector AC modo 2 Mennekes,NATURGY,24,Convenio cesión,450281.09,4477078.14
2cfc8bc944ed22629d2c5d4358d948e2,20,ChargingPoint,San Blas - Canillejas,6,Rejas,"Calle Nanclares de Oca, 5-17",Aparcamiento,-,2,50 kW 2 conectores CC (CCS/Chademo) y 1 conector AC modo 2 Mennekes,IBERDROLA,,Convenio cesión,451189.45,4477428.74
df14c7c76b558182dbd29705639146d9,18,ChargingPoint,Villa de Vallecas,1,Casco Histórico de Vallecas,"ESTACIÓN DE SUMINISTRO GNC (CTM), Avenida Eje Central, 7",Estación de servicio,-,1,50 kW 2 conectores CC (CCS/Chademo) y 1 conector AC modo 2 Mennekes,NATURGY,24,Convenio cesión,444372.2,4468663.3878
5271b5c3be3a0472d6d0c82ace3f1314,1,ChargingPoint,Centro,4,Justicia,Calle Génova 24,Vía pública,-,1,50 kW 2 conectores CC (CCS/Chademo) y 1 conector AC modo 2 Mennekes,GIC,24,Convenio vía pública,441265.9315,4475256.8314
f8ee789e62da86c82c6f37402823588f,17,ChargingPoint,Villaverde,2,San Cristóbal,Calle Godella 116,Vía pública,,3,"2 equipos 100 kW CCS/Chademo, y 1 equipo 50 kW CCS/Chademo + 1 conector 22kW AC modo 2.",TOTALENERGIES,24,Concesión demanial,441508.0669,4465807.8813
c1ffd01a5cdb7db17df5cc6c38dff466,19,ChargingPoint,Vicálvaro,1,Casco histórico de Vicálvaro,Paseo Polidportivo s/n. Centro Deportivo Margot Moles,Vía pública,,3,"Lote 2. 2 equipos 100 kW CCS/Chademo, y 1 equipo 50 kW CCS/Chademo + 1 conector 22kW AC modo 2.",TOTALENERGIES,24,Concesión demanial,448775.0696,4473350.6157
8a32f588debe4f93df216ff52be547a4,4,ChargingPoint,Salamanca,4,Guindalera,"Calle de Roberto Domingo, 4",Vía pública,,2,1 equipo de 150 kW (DC-CCS Combo 2 (≥ 250 A) y CHAdeMO (≥ 100 A)) y 1 equipo de 50 kW (DC-CCS Combo 2 (50kW) y CHAdeMO (50kW). AC- Tipo 2 (22kW)),REPSOL,24,Convenio vía pública,443931.7018,4476140.9223
4809da3571a8fafde684eab47bdb2f20,10,ChargingPoint,Latina,7,Águilas,Calle Guareña cv av Aguilas,Vía pública,,3,"Lote 3. 2 equipos 100 kW CCS Combo, y 1 equipo 50 kW CCS/Chademo + 1 conector 22kW AC modo 2.",IBERDROLA,24,Concesión demanial,435098.2803,4470762.0696
92bbd4d46d6a9e10ef9ab83ddf7a0baf,11,ChargingPoint,Carabanchel,4,Vista Alegre,"Calle del Parque Eugenia de Montijo, 36",Vía pública,,3,"2 equipos 100 kW CCS Combo, y 1 equipo 50 kW CCS/Chademo + 1 conector 22kW AC modo 2.",IBERDROLA,24,Concesión demanial,436111.0296,4470121.1823
20cf3b968414030d9e86dd84f20f5011,7,ChargingPoint,Chamberí,6,Vallehermoso,"Calle Santander, 5",Vía pública,,3,"Lote 3. 2 equipos 100 kW CCS Combo, y 1 equipo 50 kW CCS/Chademo + 1 conector 22kW AC modo 2.",IBERDROLA,24,Concesión demanial,439785.4792,4477185.4732
eadf27c80ab6182e205ad1b158a0c3e7,6,ChargingPoint,Tetuán,4,Almenara,"Calle San Aquilino, 1 B",Aparcamiento,Iniciativa privada,2,50 kW 2 conectores CC (CCS/Chademo),IBERDROLA,,Iniciativa privada,441420.4586,4479879.9766
3507f928955c1a4dacc1dd9c9c3264df,5,ChargingPoint,Chamartín,2,Prosperidad,"Avenida de América 9 A, planta -3",Aparcamiento,Iniciativa privada,2,50 kW 2 conectores CC (CCS/Chademo),IBERDROLA,,Iniciativa privada,442609.1875,4476593.9676
c8e88f0aa58585b14af0ba0fe15d96bf,18,ChargingPoint,Villa de Vallecas,18,Casco Histórico de Vallecas,Avda. de Madrid - Aparcamiento Este del Mercado Central de Pescados (Parcela C2),Mercamadrid,,2,50 kW 2 conectores CC (CCS/Chademo) y 1 conector AC modo 2 Mennekes,,24,Acuerdo bilateral,443799.3447,4467813.0732
f8ec691c4b80fba4b83c27cbd30d13d5,8,ChargingPoint,Fuencarral - El Pardo,8,Pilar,"CENTRO COMERCIAL MADRID 2 - LA VAGUADA. Av. de Monforte de Lemos, 36",Aparcamiento,,2,DC-CCS Combo 2 (50kW) y CHAdeMO (50kW). AC- Tipo 2 (22kW),CC LA VAGUADA,de 6:00 a 1:00 a.m.,Convenio cesión,439988.0577,4481183.2066
8735b74a9de0e560acdb0551a266b7a1,18,ChargingPoint,Villa de Vallecas,18,Casco Histórico de Vallecas,Avda. de Madrid - Aparcamiento Este del Mercado Central de Pescados (Parcela C2) Mercamadrid.,Mercamadrid,,1,150 kW DC-CCS Combo 2 (≥ 250 A) y CHAdeMO (≥ 100 A),,24,Acuerdo bilateral,443846.6888,4467593.8098
074c99c355e61d108726e9f5575093fe,8,ChargingPoint,Fuencarral - El Pardo,8,El Goloso,CAMPUS CANTOBLANCO – RECTORADO,Aparcamiento,,2,DC-CCS Combo 2 (50kW) y CHAdeMO (50kW) - AC- Tipo 2 (22kW),UAM,24,Convenio cesión,441119.244,4488363.2972
5a634b91a2b9f76b09c1ea8d9d9c6cd2,21,ChargingPoint,Barajas,21,Corralejos,C/Vía Dublín s/n. Club de golf Olivar de la Hinojosa.,Aparcamiento,,2,DC-CCS Combo 2 (50kW) y CHAdeMO (50kW). AC- Tipo 2 (22kW),BLAUDRIVE,de 7:30h a 21:00h,Convenio Cesión,448314.7698,4479931.9321
7c80ad6c9db498c254660bf969737444,12,ChargingPoint,Usera,12,Moscardó,"Calle Amparo Usera, 46. Mercado Usera",Mercado municipal,,1,DC-CCS Combo 2 (50kW) y CHAdeMO (50kW) AC- Tipo 2 (22kW),BLAUDRIVE,24,Convenio Cesión,440032.89,4470962.5401
e1fcab68671bd85ffa1b31f657faac46,15,ChargingPoint,Ciudad Lineal,15,San Juan Bautista,"Hospital Vithas Clinsa SA. Calle de Ramírez de Arellano, 2",Aparcamiento,,1,DC-CCS Combo 2 (50kW) y CHAdeMO (50kW) AC- Tipo 2 (22kW),ENDESA X SERVICIOS S.L.,,Convenio Cesión,444662.0953,4477889.0252
cdcec816d750694d42e719e7ac9ae52a,4,ChargingPoint,Salamanca,4,Castellana,"C.C. ABC SERRANO. Calle Serrano, 61",Aparcamiento,,1,"Conectores: DC- CCS Combo 2, 50 kW y CHAdeMO 50 kW. Toma: AC- Tipo 2, 22 kW",ENDESA X SERVICIOS S.L.,,Convenio Cesión,441732.3922,4475956.8192
467994c5bb09157b64c1e7d50c80787c,18,ChargingPoint,Villa de Vallecas,18,Casco Histórico de Vallecas,Calle 29. Mercamadrid,Aparcamiento,Iniciativa privada,1,180 kW 2 conectores CC (CCS),DRIVE THE CITY,24,Iniciativa privada,443840.5929,4467591.3591
8e12ac7fc253630d730274df1b3cb581,8,ChargingPoint,Fuencarral - El Pardo,8,El Goloso,CAMPUS CANTOBLANCO – DERECHO,Aparcamiento,,2,DC-CCS Combo 2 (50kW) y CHAdeMO (50kW) - AC- Tipo 2 (22kW),UAM,24,Convenio cesión,441450.5291,4488165.1984
c5d4338bdae527158f3f18847cc790d2,13,ChargingPoint,Puente de Vallecas,13,San Diego,"Calle Martínez de la Riva, 4. Mercado Puente de Vallecas",Mercado municipal,,1,DC-CCS Combo 2 (50kW) y CHAdeMO (50kW) AC- Tipo 2 (22kW),BLAUDRIVE,"De lunes a sábados, de 9:00h – 21:30h",Convenio Cesión,443330.7099,4471839.3704
6a12db4cf2b1bb93165dfed2712ad29f,17,ChargingPoint,Villaverde,17,Villaverde Alto - Casco Histórico de Villaverde,"OnTime - Avenida Marconi, 4",Aparcamiento,,2,50 kW,ENDESA X SERVICIOS S.L.,,Convenio Cesión,441120.6735,4465078.711
adb8956c9392b3eb7ee5a61d164f62ca,9,ChargingPoint,Moncloa - Aravaca,9,Valdemarín,"Hospital Vithas Pardo de Aravaca. Calle de la Salle, 12",Aparcamiento,,1,50 kW,ENDESA X SERVICIOS S.L.,,Convenio cesión,433583.0669,4479813.2192
e2984a5e00c02a8f32e3aaa57346d933,1,ChargingPoint,Centro,1,Sol,Calle Alcalá 17. Parking de Canalejas.,Aparcamiento,Aparcamiento,12,"4 equipos 400 kW, 4 equipos 200 kW, 4 equipos 50 kW 2 conectores CC (CCS/Chademo) y 1 conector AC modo 2 Mennekes",EMT,24,EMT,440606.5313,4474372.0214
1cc350cfbbe14ac9701ef04f97f300ec,8,ChargingPoint,Fuencarral - El Pardo,8,Peñagrande,ES Cardenal Herrera Oria. Avenida Cardenal Herrera Oria 290,Estación de Servicio,,1,50 kW 2 conectores CC (CCS/Chademo) y 1 conector AC modo 2 Mennekes,REPSOL,24,Convenio cesión,438445.5698,4481170.5521
2ec105fa10611f84dfe42328cab2e5e1,4,ChargingPoint,Salamanca,4,Recoletos,Paseo Recoletos 4,Aparcamiento,Aparcamiento público rotación. EMT,2,50 kW 2 conectores CC (CCS/Chademo) y 1 conector AC modo 2 Mennekes,EMT,24,EMT,441292.877,4474670.7732
cd0ee355bbb1130213a59470555aa463,8,ChargingPoint,Fuencarral - El Pardo,8,Pilar,"CENTRO COMERCIAL MADRID 2 - LA VAGUADA. Av. de Monforte de Lemos, 36",Aparcamiento,,4,2 equipos 150 kW: DC-CCS Combo 2 (≥ 250 A) y CHAdeMO (≥ 100 A). 2 equiposn 50kW: DC-CCS Combo 2 (50kW) y CHAdeMO (50kW). AC- Tipo 2 (22kW).,CC LA VAGUADA,de 6:00 a 1:00 a.m.,Convenio cesión,440027.1806,4481197.54
